{
  "norad_id": 63274,
  "name": "STARLINK-11615 [DTC]",
  "history": [
    {
      "epoch": "2026-03-28T19:10:44.521824",
      "apogee_km": 357.6156804979237,
      "perigee_km": 353.79435982832183,
      "latitude_deg": 12.684594910004197,
      "longitude_deg": -135.88386464025825,
      "semi_major_axis_km": 6733.8420201631225,
      "eccentricity": 0.00028374,
      "inclination_deg": 43.0018,
      "raan_deg": 357.1569,
      "arg_perigee_deg": 284.5403,
      "mean_anomaly_deg": 75.515,
      "mean_motion_rev_day": 15.71116454
    }
  ]
}